OBJECT_NAME,OBJECT_ID,EPOCH,MEAN_MOTION,ECCENTRICITY,INCLINATION,RA_OF_ASC_NODE,ARG_OF_PERICENTER,MEAN_ANOMALY,EPHEMERIS_TYPE,CLASSIFICATION_TYPE,NORAD_CAT_ID,ELEMENT_SET_NO,REV_AT_EPOCH,BSTAR,MEAN_MOTION_DOT,MEAN_MOTION_DDOT
SPACEMOBILE-004,2024-163E,2026-07-18T07:35:11.622336,15.20746753,.00057895,52.9719,165.7693,237.6341,122.4093,0,U,61049,999,10250,.48446837E-3,.10492E-3,0
CZ-8A R/B,2025-231K,2026-07-19T04:39:55.037664,14.30162831,.01165472,50.0034,263.1443,336.7026,22.8633,0,U,66004,999,3952,.30971216E-4,-.78E-6,0
SZ-21 MODULE,2025-246C,2026-07-18T22:15:26.870112,15.79071275,.00089989,41.4721,109.2360,244.5727,115.4187,0,U,66515,999,3875,.1847524E-3,.33789E-3,0
SPACEMOBILE-006,2025-309A,2026-07-19T05:24:26.566272,15.18666511,.0009705,52.9939,184.8715,229.1776,130.8377,0,U,67232,999,3146,.89101153E-4,.155E-4,0
SPACEMOBILE-008,2026-139A,2026-07-19T01:13:00.193152,15.12805551,.00052157,52.9951,117.9031,65.6250,294.5285,0,U,69589,999,480,.3819613E-4,.377E-5,0
SPACEMOBILE-009,2026-139B,2026-07-19T04:26:30.092064,15.12699108,.00054807,52.9942,117.3113,61.8560,298.2984,0,U,69590,999,482,.3659745E-4,.347E-5,0
SPACEMOBILE-010,2026-139C,2026-07-19T01:21:18.277920,15.12537961,.00054473,52.9947,117.9362,54.3498,305.7999,0,U,69591,999,481,.77627205E-4,.1068E-4,0
